idElset,classificationMarking,satNo,epoch,meanMotion,idOnOrbit,uct,eccentricity,inclination,raan,argOfPerigee,meanAnomaly,bStar,meanMotionDot,meanMotionDDot,semiMajorAxis,period,apogee,perigee,origObjectId,line1,line2,createdAt,createdBy,source,dataMode,ephemType,origNetwork,elset
8cba23cf-7839-499f-b819-554ee04de655,U//PR-EXO-ELSETS,25740,2025-08-09T20:36:01.313094Z,0.9857555267554056,25740,False,0.0006188943084409471,5.820819073577931,74.48458489161399,311.9561065212139,272.2837246670265,0.0,0.0,0.0,42647.05523768126,1460.808446836439,42673.44925743963,42620.66121792289,25740,1 25740U 99027A   25221.85834853 +.00000000 +00000+0 +00000+0 2 99990,2 25740   5.8208  74.4846 0006188 311.9561 272.2837  0.98575552000002,2025-08-09T23:15:31.357Z,system.exo,EXO,REAL,2,OPS1,"{'NORAD_ID': 25740, 'classification': 'U', 'COSPAR_ID': '99027A', 'BC': 0.0, 'n_ddot': 0.0, 'B_star': 0.0, 'ephemeris_type': 2, 'elset_num': 9999, 'inclination': 5.8208, 'RAAN': 74.4846, 'eccentricity': 0.0006188, 'perigee': 311.9561, 'mean_anomaly': 272.2837, 'mean_motion': 0.98575552, 'rev_num': 0, 'line1': '1 25740U 99027A   25221.85834853 +.00000000 +00000+0 +00000+0 2 99990', 'line2': '2 25740   5.8208  74.4846 0006188 311.9561 272.2837  0.98575552000002', 'epoch': datetime.datetime(2025, 8, 9, 20, 36, 1, 312992)}"
d82a6ebe-a0b3-4ec7-9024-a4994a8360a4,U//PR-EXO-ELSETS,22557,2025-08-09T19:04:48.173117Z,1.00307984272383,22557,False,0.0006165354104560406,14.01044383040952,347.4167970731028,171.5131962078762,103.5230989330889,0.0,0.0,0.0,42154.58909471176,1435.578643560145,42180.57889160188,42128.59929782165,22557,1 22557U 93013A   25221.79500200 +.00000000 +00000+0 +00000+0 2 99991,2 22557  14.0104 347.4168 0006165 171.5132 103.5231  1.00307984000001,2025-08-09T19:54:32.524Z,system.exo,EXO,REAL,2,OPS1,"{'NORAD_ID': 22557, 'classification': 'U', 'COSPAR_ID': '93013A', 'BC': 0.0, 'n_ddot': 0.0, 'B_star': 0.0, 'ephemeris_type': 2, 'elset_num': 9999, 'inclination': 14.0104, 'RAAN': 347.4168, 'eccentricity': 0.0006165, 'perigee': 171.5132, 'mean_anomaly': 103.5231, 'mean_motion': 1.00307984, 'rev_num': 0, 'line1': '1 22557U 93013A   25221.79500200 +.00000000 +00000+0 +00000+0 2 99991', 'line2': '2 22557  14.0104 347.4168 0006165 171.5132 103.5231  1.00307984000001', 'epoch': datetime.datetime(2025, 8, 9, 19, 4, 48, 172800)}"
37c0f0dd-edec-4b62-a72a-8005e7a6199e,U//PR-EXO-ELSETS,28542,2025-08-09T04:45:54.626204Z,1.002710655359715,28542,False,0.0004441224107045946,3.523795750014876,80.61562494853146,45.72828458455583,292.1085630438707,0.0,0.0,0.0,42164.9357064607,1436.1072082987,42183.66209935385,42146.20931356754,28542,1 28542U 05005A   25221.19854891 +.00000000 +00000+0 +00000+0 2 99997,2 28542   3.5238  80.6156 0004441  45.7283 292.1086  1.00271065000002,2025-08-09T06:30:31.777Z,system.exo,EXO,REAL,2,OPS1,"{'NORAD_ID': 28542, 'classification': 'U', 'COSPAR_ID': '05005A', 'BC': 0.0, 'n_ddot': 0.0, 'B_star': 0.0, 'ephemeris_type': 2, 'elset_num': 9999, 'inclination': 3.5238, 'RAAN': 80.6156, 'eccentricity': 0.0004441, 'perigee': 45.7283, 'mean_anomaly': 292.1086, 'mean_motion': 1.00271065, 'rev_num': 0, 'line1': '1 28542U 05005A   25221.19854891 +.00000000 +00000+0 +00000+0 2 99997', 'line2': '2 28542   3.5238  80.6156 0004441  45.7283 292.1086  1.00271065000002', 'epoch': datetime.datetime(2025, 8, 9, 4, 45, 54, 625824)}"
55c3765b-e26e-4c08-b229-696a219f57fb,U//PR-EXO-ELSETS,40100,2025-08-09T20:29:27.289723Z,0.9912881870870093,40100,False,3.170186244732382e-05,3.904405693296462,80.05935715374876,246.2921522346898,294.9656336122841,0.0,0.0,0.0,42488.22372557864,1452.655260859681,42489.57068140282,42486.87676975446,40100,1 40100U 14043B   25221.85378808 +.00000000 +00000+0 +00000+0 2 99995,2 40100   3.9044  80.0594 0000317 246.2922 294.9656  0.99128818000008,2025-08-09T20:48:30.051Z,system.exo,EXO,REAL,2,OPS1,"{'NORAD_ID': 40100, 'classification': 'U', 'COSPAR_ID': '14043B', 'BC': 0.0, 'n_ddot': 0.0, 'B_star': 0.0, 'ephemeris_type': 2, 'elset_num': 9999, 'inclination': 3.9044, 'RAAN': 80.0594, 'eccentricity': 3.17e-05, 'perigee': 246.2922, 'mean_anomaly': 294.9656, 'mean_motion': 0.99128818, 'rev_num': 0, 'line1': '1 40100U 14043B   25221.85378808 +.00000000 +00000+0 +00000+0 2 99995', 'line2': '2 40100   3.9044  80.0594 0000317 246.2922 294.9656  0.99128818000008', 'epoch': datetime.datetime(2025, 8, 9, 20, 29, 27, 290112)}"
3978f0ca-8069-4c6f-86de-25e39c939890,U//PR-EXO-ELSETS,41469,2025-08-09T20:14:55.488538Z,1.00270570291408,41469,False,0.000630532459513416,4.427199974742867,105.491721334588,17.60405848047349,268.7448777188437,0.0,0.0,0.0,42165.07454372821,1436.114301349885,42191.66099188584,42138.48809557059,41469,1 41469U 16027A   25221.84369778 +.00000000 +00000+0 +00000+0 2 99993,2 41469   4.4272 105.4917 0006305  17.6041 268.7449  1.00270570000007,2025-08-09T21:03:31.633Z,system.exo,EXO,REAL,2,OPS1,"{'NORAD_ID': 41469, 'classification': 'U', 'COSPAR_ID': '16027A', 'BC': 0.0, 'n_ddot': 0.0, 'B_star': 0.0, 'ephemeris_type': 2, 'elset_num': 9999, 'inclination': 4.4272, 'RAAN': 105.4917, 'eccentricity': 0.0006305, 'perigee': 17.6041, 'mean_anomaly': 268.7449, 'mean_motion': 1.0027057, 'rev_num': 0, 'line1': '1 41469U 16027A   25221.84369778 +.00000000 +00000+0 +00000+0 2 99993', 'line2': '2 41469   4.4272 105.4917 0006305  17.6041 268.7449  1.00270570000007', 'epoch': datetime.datetime(2025, 8, 9, 20, 14, 55, 488192)}"
f6ce165b-3bdb-44f3-a6d0-13618bbe7f70,U//PR-EXO-ELSETS,55686,2025-08-09T19:44:58.827995Z,1.002681126271742,55686,False,0.000292341070946279,0.0738997880311659,80.24742338305526,37.35305079451138,262.2838494700653,0.0,0.0,0.0,42165.7635442461,1436.149501840466,42178.0903287179,42153.43675977431,55686,1 55686U 23023A   25221.82290310 +.00000000 +00000+0 +00000+0 2 99996,2 55686   0.0739  80.2474 0002923  37.3531 262.2838  1.00268112000006,2025-08-09T20:45:29.776Z,system.exo,EXO,REAL,2,OPS1,"{'NORAD_ID': 55686, 'classification': 'U', 'COSPAR_ID': '23023A', 'BC': 0.0, 'n_ddot': 0.0, 'B_star': 0.0, 'ephemeris_type': 2, 'elset_num': 9999, 'inclination': 0.0739, 'RAAN': 80.2474, 'eccentricity': 0.0002923, 'perigee': 37.3531, 'mean_anomaly': 262.2838, 'mean_motion': 1.00268112, 'rev_num': 0, 'line1': '1 55686U 23023A   25221.82290310 +.00000000 +00000+0 +00000+0 2 99996', 'line2': '2 55686   0.0739  80.2474 0002923  37.3531 262.2838  1.00268112000006', 'epoch': datetime.datetime(2025, 8, 9, 19, 44, 58, 827840)}"
7cb46347-24f9-4f83-bebb-eb7089b17a50,U//PR-EXO-ELSETS,5854,2025-08-09T18:56:16.511881Z,1.006623316248331,5854,False,0.006350342601352857,0.1685466436880204,137.7760656347748,287.7582472803934,302.5331358380947,0.0,0.0,0.0,42055.60374314516,1430.525179336057,42322.67123522088,41788.53625106945,5854,1 05854U 72010B   25221.78908000 +.00000000 +00000+0 +00000+0 2 99995,2 05854   0.1685 137.7761 0063503 287.7582 302.5331  1.00662331000001,2025-08-09T19:27:28.569Z,system.exo,EXO,REAL,2,OPS1,"{'NORAD_ID': 5854, 'classification': 'U', 'COSPAR_ID': '72010B', 'BC': 0.0, 'n_ddot': 0.0, 'B_star': 0.0, 'ephemeris_type': 2, 'elset_num': 9999, 'inclination': 0.1685, 'RAAN': 137.7761, 'eccentricity': 0.0063503, 'perigee': 287.7582, 'mean_anomaly': 302.5331, 'mean_motion': 1.00662331, 'rev_num': 0, 'line1': '1 05854U 72010B   25221.78908000 +.00000000 +00000+0 +00000+0 2 99995', 'line2': '2 05854   0.1685 137.7761 0063503 287.7582 302.5331  1.00662331000001', 'epoch': datetime.datetime(2025, 8, 9, 18, 56, 16, 512000)}"
a4f4b20d-0abf-46c6-90a9-eb4f2e1c8a40,U//PR-EXO-ELSETS,38977,2025-08-09T04:00:33.671178Z,1.002675318556699,38977,False,0.0005654672937744288,9.802160340702665,52.89400022607003,136.0025060022252,172.8606458973739,0.0,0.0,0.0,42165.92636631376,1436.157820332915,42189.76981858561,42142.08291404191,38977,1 38977U 12061A   25221.16705638 +.00000000 +00000+0 +00000+0 2 99991,2 38977   9.8022  52.8940 0005654 136.0025 172.8606  1.00267531000007,2025-08-09T05:15:30.791Z,system.exo,EXO,REAL,2,OPS1,"{'NORAD_ID': 38977, 'classification': 'U', 'COSPAR_ID': '12061A', 'BC': 0.0, 'n_ddot': 0.0, 'B_star': 0.0, 'ephemeris_type': 2, 'elset_num': 9999, 'inclination': 9.8022, 'RAAN': 52.894, 'eccentricity': 0.0005654, 'perigee': 136.0025, 'mean_anomaly': 172.8606, 'mean_motion': 1.00267531, 'rev_num': 0, 'line1': '1 38977U 12061A   25221.16705638 +.00000000 +00000+0 +00000+0 2 99991', 'line2': '2 38977   9.8022  52.8940 0005654 136.0025 172.8606  1.00267531000007', 'epoch': datetime.datetime(2025, 8, 9, 4, 0, 33, 671232)}"
645cfbb9-6bac-45ec-af5c-fbfb5d5b462c,U//PR-EXO-ELSETS,54033,2025-08-09T20:38:11.629829Z,1.002705525241573,54033,False,4.093582727131145e-05,0.02120381724846372,184.5813859861329,100.488312658549,6.057397169253087,0.0,0.0,0.0,42165.07952463512,1436.114555819441,42166.80558704742,42163.35346222282,54033,1 54033U 22131A   25221.85985683 +.00000000 +00000+0 +00000+0 2 99997,2 54033   0.0212 184.5814 0000409 100.4883   6.0574  1.00270552000004,2025-08-09T21:18:30.248Z,system.exo,EXO,REAL,2,OPS1,"{'NORAD_ID': 54033, 'classification': 'U', 'COSPAR_ID': '22131A', 'BC': 0.0, 'n_ddot': 0.0, 'B_star': 0.0, 'ephemeris_type': 2, 'elset_num': 9999, 'inclination': 0.0212, 'RAAN': 184.5814, 'eccentricity': 4.09e-05, 'perigee': 100.4883, 'mean_anomaly': 6.0574, 'mean_motion': 1.00270552, 'rev_num': 0, 'line1': '1 54033U 22131A   25221.85985683 +.00000000 +00000+0 +00000+0 2 99997', 'line2': '2 54033   0.0212 184.5814 0000409 100.4883   6.0574  1.00270552000004', 'epoch': datetime.datetime(2025, 8, 9, 20, 38, 11, 630112)}"
